CCSDS_OMM_VERS,COMMENT,CREATION_DATE,ORIGINATOR,OBJECT_NAME,OBJECT_ID,CENTER_NAME,REF_FRAME,TIME_SYSTEM,MEAN_ELEMENT_THEORY,EPOCH,MEAN_MOTION,ECCENTRICITY,INCLINATION,RA_OF_ASC_NODE,ARG_OF_PERICENTER,MEAN_ANOMALY,EPHEMERIS_TYPE,CLASSIFICATION_TYPE,NORAD_CAT_ID,ELEMENT_SET_NO,REV_AT_EPOCH,BSTAR,MEAN_MOTION_DOT,MEAN_MOTION_DDOT,SEMIMAJOR_AXIS,PERIOD,APOAPSIS,PERIAPSIS,OBJECT_TYPE,RCS_SIZE,COUNTRY_CODE,LAUNCH_DATE,SITE,DECAY_DATE,FILE,GP_ID,TLE_LINE0,TLE_LINE1,TLE_LINE2
"3.0","GENERATED VIA SPACE-TRACK.ORG API","2026-03-25T17:29:05","18 SPCS","DMSP 5D-2 F13 DEB","1995-015ES","EARTH","TEME","UTC","SGP4","2026-03-25T12:33:13.580640","14.62449401","0.00221645","98.5910","177.2993","342.2497","17.7926","0","U","40583","999","57446","0.00216678900000","0.00010974","0.0000000000000","7063.413","98.465","700.934","669.622","DEBRIS","SMALL","US","1995-03-24","AFWTR","","5096884","317014673","0 DMSP 5D-2 F13 DEB","1 40583U 95015ES  26084.52307385  .00010974  00000-0  21668-2 0  9999","2 40583  98.5910 177.2993 0022164 342.2497  17.7926 14.62449401574461"
"3.0","GENERATED VIA SPACE-TRACK.ORG API","2026-03-25T04:32:27","18 SPCS","DMSP 5D-2 F13 DEB","1995-015EY","EARTH","TEME","UTC","SGP4","2026-03-24T13:46:55.221600","14.46145676","0.00108516","98.6497","131.5263","112.8326","247.4012","0","U","40601","999","56803","0.00176400070000","0.00006266","0.0000000000000","7116.402","99.575","745.989","730.545","DEBRIS","SMALL","US","1995-03-24","AFWTR","","5096755","316981480","0 DMSP 5D-2 F13 DEB","1 40601U 95015EY  26083.57425025  .00006266  00000-0  17640-2 0  9990","2 40601  98.6497 131.5263 0010852 112.8326 247.4012 14.46145676568032"
"3.0","GENERATED VIA SPACE-TRACK.ORG API","2026-03-25T17:29:05","18 SPCS","DMSP 5D-2 F13 DEB","1995-015FC","EARTH","TEME","UTC","SGP4","2026-03-25T09:46:53.824224","14.60041655","0.00222257","98.6265","149.3090","131.9734","228.3363","0","U","40605","999","57032","0.00228104310000","0.00010958","0.0000000000000","7071.176","98.627","708.758","677.325","DEBRIS","SMALL","US","1995-03-24","AFWTR","","5096884","317014174","0 DMSP 5D-2 F13 DEB","1 40605U 95015FC  26084.40756741  .00010958  00000-0  22810-2 0  9997","2 40605  98.6265 149.3090 0022226 131.9734 228.3363 14.60041655570327"
"3.0","GENERATED VIA SPACE-TRACK.ORG API","2026-03-25T04:32:27","18 SPCS","DMSP 5D-2 F13 DEB","1995-015FG","EARTH","TEME","UTC","SGP4","2026-03-24T08:32:10.891104","14.43392122","0.00029214","98.6821","125.6377","203.6568","156.4487","0","U","40609","999","56760","0.00168629730000","0.00005650","0.0000000000000","7125.450","99.765","749.397","745.233","DEBRIS","SMALL","US","1995-03-24","AFWTR","","5096755","316980982","0 DMSP 5D-2 F13 DEB","1 40609U 95015FG  26083.35568161  .00005650  00000-0  16863-2 0  9995","2 40609  98.6821 125.6377 0002921 203.6568 156.4487 14.43392122567600"
"3.0","GENERATED VIA SPACE-TRACK.ORG API","2026-03-25T17:29:05","18 SPCS","DMSP 5D-2 F13 DEB","1995-015FS","EARTH","TEME","UTC","SGP4","2026-03-25T08:34:08.409792","14.55018010","0.00147851","98.5881","136.4613","71.3988","288.8812","0","U","40678","999","56750","0.00176589730000","0.00007577","0.0000000000000","7087.443","98.968","719.787","698.829","DEBRIS","SMALL","US","1995-03-24","AFWTR","","5096884","317014187","0 DMSP 5D-2 F13 DEB","1 40678U 95015FS  26084.35704178  .00007577  00000-0  17659-2 0  9996","2 40678  98.5881 136.4613 0014785  71.3988 288.8812 14.55018010567506"
"3.0","GENERATED VIA SPACE-TRACK.ORG API","2026-03-25T04:32:27","18 SPCS","FENGYUN 1C DEB","1999-025EXH","EARTH","TEME","UTC","SGP4","2026-03-24T18:18:14.211072","14.79476166","0.00638754","98.9670","18.9477","333.8719","25.9270","0","U","41003","999","53925","0.00421471020000","0.00032672","0.0000000000000","7009.115","97.332","675.751","586.209","DEBRIS","SMALL","PRC","1999-05-10","TSC","","5096755","316981105","0 FENGYUN 1C DEB","1 41003U 99025EXH 26083.76266448  .00032672  00000-0  42147-2 0  9995","2 41003  98.9670  18.9477 0063875 333.8719  25.9270 14.79476166539258"
"3.0","GENERATED VIA SPACE-TRACK.ORG API","2026-03-25T17:29:05","18 SPCS","NOAA 16 DEB","2000-055H","EARTH","TEME","UTC","SGP4","2026-03-25T09:04:39.107424","14.88088184","0.00098891","98.9251","296.3785","317.9129","42.1324","0","U","41050","999","53871","0.00363176810000","0.00033520","0.0000000000000","6982.046","96.768","610.816","597.007","DEBRIS","MEDIUM","US","2000-09-21","AFWTR","","5096884","317014312","0 NOAA 16 DEB","1 41050U 00055H   26084.37823041  .00033520  00000-0  36318-2 0  9994","2 41050  98.9251 296.3785 0009889 317.9129  42.1324 14.88088184538712"
"3.0","GENERATED VIA SPACE-TRACK.ORG API","2026-03-25T17:29:05","18 SPCS","NOAA 16 DEB","2000-055L","EARTH","TEME","UTC","SGP4","2026-03-25T03:14:50.527392","14.53672209","0.00249605","99.0012","301.2351","3.8608","356.2774","0","U","41053","999","53815","0.00157468730000","0.00006571","0.0000000000000","7091.817","99.059","731.383","695.980","DEBRIS","SMALL","US","2000-09-21","AFWTR","","5096884","317014814","0 NOAA 16 DEB","1 41053U 00055L   26084.13530703  .00006571  00000-0  15747-2 0  9990","2 41053  99.0012 301.2351 0024960   3.8608 356.2774 14.53672209538152"
"3.0","GENERATED VIA SPACE-TRACK.ORG API","2026-03-24T15:16:45","18 SPCS","NOAA 16 DEB","2000-055AV","EARTH","TEME","UTC","SGP4","2026-03-24T06:43:07.972896","14.67411504","0.00283370","98.8109","252.1335","233.4430","126.4163","0","U","41086","999","53927","0.00261760000000","0.00014866","0.0000000000000","7047.481","98.132","689.316","649.375","DEBRIS","SMALL","US","2000-09-21","AFWTR","","5096073","316953471","0 NOAA 16 DEB","1 41086U 00055AV  26083.27995339  .00014866  00000-0  26176-2 0  9994","2 41086  98.8109 252.1335 0028337 233.4430 126.4163 14.67411504539271"
"3.0","GENERATED VIA SPACE-TRACK.ORG API","2026-03-25T04:32:27","18 SPCS","NOAA 16 DEB","2000-055BD","EARTH","TEME","UTC","SGP4","2026-03-24T18:35:10.580064","14.81621271","0.00285534","98.9947","21.6238","178.6439","181.4853","0","U","41094","999","54087","0.00329026020000","0.00026079","0.0000000000000","7002.348","97.191","644.207","604.219","DEBRIS","SMALL","US","2000-09-21","AFWTR","","5096755","316981639","0 NOAA 16 DEB","1 41094U 00055BD  26083.77442801  .00026079  00000-0  32903-2 0  9993","2 41094  98.9947  21.6238 0028553 178.6439 181.4853 14.81621271540876"
"3.0","GENERATED VIA SPACE-TRACK.ORG API","2026-03-25T17:29:05","18 SPCS","NOAA 16 DEB","2000-055BP","EARTH","TEME","UTC","SGP4","2026-03-25T10:28:35.008320","14.63499176","0.00283098","98.8614","258.4873","247.9459","111.8733","0","U","41132","999","53744","0.00215341510000","0.00011185","0.0000000000000","7060.035","98.394","701.887","661.913","DEBRIS","SMALL","US","2000-09-21","AFWTR","","5096884","317015341","0 NOAA 16 DEB","1 41132U 00055BP  26084.43651630  .00011185  00000-0  21534-2 0  9992","2 41132  98.8614 258.4873 0028310 247.9459 111.8733 14.63499176537447"
"3.0","GENERATED VIA SPACE-TRACK.ORG API","2026-03-23T06:38:30","18 SPCS","NOAA 16 DEB","2000-055BQ","EARTH","TEME","UTC","SGP4","2026-03-22T21:47:32.440704","14.64396982","0.00064435","98.9172","252.3365","276.8647","83.1820","0","U","41133","999","53383","0.00562753000000","0.00029835","0.0000000000000","7057.149","98.334","683.561","674.467","DEBRIS","SMALL","US","2000-09-21","AFWTR","","5094924","316813748","0 NOAA 16 DEB","1 41133U 00055BQ  26081.90801436  .00029835  00000-0  56275-2 0  9994","2 41133  98.9172 252.3365 0006444 276.8647  83.1820 14.64396982533830"
"3.0","GENERATED VIA SPACE-TRACK.ORG API","2026-03-25T17:29:05","18 SPCS","NOAA 16 DEB","2000-055BX","EARTH","TEME","UTC","SGP4","2026-03-24T23:58:30.838656","14.87051578","0.00235507","98.8473","286.0560","150.2768","209.9788","0","U","41140","999","54057","0.00302127730000","0.00027260","0.0000000000000","6985.291","96.836","623.607","590.705","DEBRIS","SMALL","US","2000-09-21","AFWTR","","5096884","317014843","0 NOAA 16 DEB","1 41140U 00055BX  26083.99896804  .00027260  00000-0  30213-2 0  9990","2 41140  98.8473 286.0560 0023551 150.2768 209.9788 14.87051578540573"
"3.0","GENERATED VIA SPACE-TRACK.ORG API","2026-03-25T17:29:05","18 SPCS","NOAA 16 DEB","2000-055BY","EARTH","TEME","UTC","SGP4","2026-03-25T04:53:14.027712","14.68778047","0.00355064","98.9718","357.2136","260.2121","99.5071","0","U","41141","999","53983","0.00228014300000","0.00013391","0.0000000000000","7043.109","98.041","689.981","639.966","DEBRIS","SMALL","US","2000-09-21","AFWTR","","5096884","317015344","0 NOAA 16 DEB","1 41141U 00055BY  26084.20363458  .00013391  00000-0  22801-2 0  9994","2 41141  98.9718 357.2136 0035506 260.2121  99.5071 14.68778047539836"
"3.0","GENERATED VIA SPACE-TRACK.ORG API","2026-03-25T17:29:05","18 SPCS","NOAA 16 DEB","2000-055CD","EARTH","TEME","UTC","SGP4","2026-03-25T13:58:39.458496","14.54380644","0.00135256","98.8242","207.7046","351.5229","8.5736","0","U","41146","999","53432","0.00374733550000","0.00015930","0.0000000000000","7089.514","99.011","720.968","701.790","DEBRIS","SMALL","US","2000-09-21","AFWTR","","5096884","317015346","0 NOAA 16 DEB","1 41146U 00055CD  26084.58240114  .00015930  00000-0  37473-2 0  9995","2 41146  98.8242 207.7046 0013526 351.5229   8.5736 14.54380644534326"
"3.0","GENERATED VIA SPACE-TRACK.ORG API","2026-03-25T04:32:27","18 SPCS","NOAA 16 DEB","2000-055CG","EARTH","TEME","UTC","SGP4","2026-03-24T16:21:09.732096","14.80690194","0.00306139","98.9238","349.8161","188.6481","171.4205","0","U","41149","999","54123","0.00292519690000","0.00022679","0.0000000000000","7005.283","97.252","648.594","605.702","DEBRIS","SMALL","US","2000-09-21","AFWTR","","5096755","316982153","0 NOAA 16 DEB","1 41149U 00055CG  26083.68136264  .00022679  00000-0  29252-2 0  9992","2 41149  98.9238 349.8161 0030614 188.6481 171.4205 14.80690194541239"
